NORAD_CAT_ID,OBJECT_NAME,OBJECT_TYPE,EPOCH,MEAN_MOTION,ECCENTRICITY,INCLINATION,RA_OF_ASC_NODE,ARG_OF_PERICENTER,MEAN_ANOMALY,BSTAR,MEAN_MOTION_DOT,MEAN_MOTION_DDOT,TLE_LINE0,TLE_LINE1,TLE_LINE2,SEMIMAJOR_AXIS,PERIOD,APOGEE,PERIGEE,DECAYED
53140.0,STARLINK-4170,PAYLOAD,2023-02-19 12:08:06,15.08875251,0.0001729,53.2153,135.8867,90.944,269.175,0.0017565,0.00027805,0.0,0 STARLINK-4170,1 53140U 22083J   23050.50563153  .00027805  00000-0  17565-2 0  9994,2 53140  53.2153 135.8867 0001729  90.9440 269.1750 15.08875251 33645,6917.773,95.435,540.834,538.442,0.0
53140.0,STARLINK-4170,PAYLOAD,2023-02-20 05:37:20,15.0886518,0.0002008,53.2154,132.6153,95.1231,264.999,0.0010384,0.00016288,0.0,0 STARLINK-4170,1 53140U 22083J   23051.23426381  .00016288  00000-0  10384-2 0  9991,2 53140  53.2154 132.6153 0002008  95.1231 264.9990 15.08865180 33756,6917.803,95.436,541.058,538.279,0.0
53140.0,STARLINK-4170,PAYLOAD,2023-02-20 11:58:52,15.08868102,0.0001482,53.2162,131.4277,99.8881,260.2279,0.0016972,0.00026847,0.0,0 STARLINK-4170,1 53140U 22083J   23051.49921968  .00026847  00000-0  16972-2 0  9991,2 53140  53.2162 131.4277 0001482  99.8881 260.2279 15.08868102 33167,6917.794,95.436,540.685,538.634,0.0
53140.0,STARLINK-4170,PAYLOAD,2023-02-21 11:49:39,15.08854104,0.0001367,53.2157,126.9665,103.0698,257.0447,0.0020977,0.00033268,0.0,0 STARLINK-4170,1 53140U 22083J   23052.49282003  .00033268  00000-0  20977-2 0  9997,2 53140  53.2157 126.9665 0001367 103.0698 257.0447 15.08854104 33941,6917.837,95.437,540.648,538.757,0.0
53140.0,STARLINK-4170,PAYLOAD,2023-02-21 16:35:48,15.08870897,0.0001387,53.2158,126.0743,99.2014,260.9135,0.0024246,0.00038544,0.0,0 STARLINK-4170,1 53140U 22083J   23052.69153716  .00038544  00000-0  24246-2 0  9992,2 53140  53.2158 126.0743 0001387  99.2014 260.9135 15.08870897 33348,6917.786,95.436,540.61,538.691,0.0
53140.0,STARLINK-4170,PAYLOAD,2023-02-21 21:21:58,15.08845481,0.0002746,53.216,125.1803,96.966,263.1644,0.00029058,4.34e-05,0.0,0 STARLINK-4170,1 53140U 22083J   23052.89026269  .00004340  00000-0  29058-3 0  9990,2 53140  53.2160 125.1803 0002746  96.9660 263.1644 15.08845481 34004,6917.864,95.437,541.628,537.829,0.0
53140.0,STARLINK-4170,PAYLOAD,2023-02-22 10:05:03,15.08837114,0.0001829,53.2168,122.8018,103.6185,256.5011,0.00057245,8.834e-05,0.0,0 STARLINK-4170,1 53140U 22083J   23053.42018101  .00008834  00000-0  57245-3 0  9997,2 53140  53.2168 122.8018 0001829 103.6185 256.5011 15.08837114 34089,6917.889,95.438,541.019,538.489,0.0
53140.0,STARLINK-4170,PAYLOAD,2023-02-22 21:12:45,15.08829658,0.0001866,53.2158,120.7217,91.1185,269.0021,-8.4132e-05,-1.626e-05,0.0,0 STARLINK-4170,1 53140U 22083J   23053.88386494 -.00001626  00000-0 -84132-4 0  9990,2 53140  53.2158 120.7217 0001866  91.1185 269.0021 15.08829658 33520,6917.912,95.438,541.068,538.486,0.0
53140.0,STARLINK-4170,PAYLOAD,2023-02-23 13:06:37,15.08840635,0.0001451,53.2161,117.7483,104.6037,255.5117,0.0006299,9.751e-05,0.0,0 STARLINK-4170,1 53140U 22083J   23054.54626678  .00009751  00000-0  62990-3 0  9997,2 53140  53.2161 117.7483 0001451 104.6037 255.5117 15.08840635 33626,6917.878,95.438,540.747,538.74,0.0
53140.0,STARLINK-4170,PAYLOAD,2023-02-23 21:03:33,15.08841579,0.000131,53.215,116.2599,85.6379,274.4763,0.0007587,0.00011808,0.0,0 STARLINK-4170,1 53140U 22083J   23054.87746871  .00011808  00000-0  75870-3 0  9998,2 53140  53.2150 116.2599 0001310  85.6379 274.4763 15.08841579 33677,6917.876,95.437,540.647,538.834,0.0
53140.0,STARLINK-4170,PAYLOAD,2023-02-24 11:22:01,15.08851111,0.0001222,53.215,113.5826,85.0673,275.0458,0.00043108,6.581e-05,0.0,0 STARLINK-4170,1 53140U 22083J   23055.47362468  .00006581  00000-0  43108-3 0  9992,2 53140  53.2150 113.5826 0001222  85.0673 275.0458 15.08851111 33764,6917.846,95.437,540.557,538.866,0.0
53140.0,STARLINK-4170,PAYLOAD,2023-02-24 20:54:20,15.08828058,0.0001027,53.215,111.7998,107.5762,252.5343,-0.00056352,-9.242e-05,0.0,0 STARLINK-4170,1 53140U 22083J   23055.87106649 -.00009242  00000-0 -56352-3 0  9997,2 53140  53.2150 111.7998 0001027 107.5762 252.5343 15.08828058 33820,6917.917,95.438,540.492,539.071,0.0
53140.0,STARLINK-4170,PAYLOAD,2023-02-25 03:15:52,15.08827369,9.87e-05,53.2152,110.6107,113.9796,246.13,-0.00040223,-6.681e-05,0.0,0 STARLINK-4170,1 53140U 22083J   23056.13602843 -.00006681  00000-0 -40223-3 0  9998,2 53140  53.2152 110.6107 0000987 113.9796 246.1300 15.08827369 34494,6917.919,95.438,540.467,539.101,0.0
53140.0,STARLINK-4170,PAYLOAD,2023-02-25 11:12:48,15.08831827,0.0001103,53.2144,109.1242,100.4586,259.653,0.0013504,0.00021264,0.0,0 STARLINK-4170,1 53140U 22083J   23056.46723201  .00021264  00000-0  13504-2 0  9999,2 53140  53.2144 109.1242 0001103 100.4586 259.6530 15.08831827 33911,6917.905,95.438,540.533,539.007,0.0
53140.0,STARLINK-4170,PAYLOAD,2023-02-25 15:58:58,15.08841152,0.0001136,53.2141,108.2318,99.3095,260.8026,0.0014877,0.00023469,0.0,0 STARLINK-4170,1 53140U 22083J   23056.66595239  .00023469  00000-0  14877-2 0  9992,2 53140  53.2141 108.2318 0001136  99.3095 260.8026 15.08841152 34578,6917.877,95.437,540.528,538.956,0.0
53140.0,STARLINK-4170,PAYLOAD,2023-02-26 09:28:12,15.08866868,0.0001227,53.2142,104.9608,96.9244,263.1888,0.001372,0.00021631,0.0,0 STARLINK-4170,1 53140U 22083J   23057.39458760  .00021631  00000-0  13720-2 0  9995,2 53140  53.2142 104.9608 0001227  96.9244 263.1888 15.08866868 34689,6917.798,95.436,540.512,538.814,0.0
53140.0,STARLINK-4170,PAYLOAD,2023-02-26 20:35:54,15.08840496,0.0001407,53.2159,102.8785,85.9096,274.2056,8.16e-05,1.011e-05,0.0,0 STARLINK-4170,1 53140U 22083J   23057.85827026  .00001011  00000-0  81600-4 0  9995,2 53140  53.2159 102.8785 0001407  85.9096 274.2056 15.08840496 34121,6917.879,95.438,540.717,538.771,0.0
53140.0,STARLINK-4170,PAYLOAD,2023-02-27 14:05:08,15.08877785,0.0001423,53.216,99.606,94.9127,265.2028,0.0022803,0.00036227,0.0,0 STARLINK-4170,1 53140U 22083J   23058.58690778  .00036227  00000-0  22803-2 0  9993,2 53140  53.2160  99.6060 0001423  94.9127 265.2028 15.08877785 34866,6917.765,95.435,540.614,538.645,0.0
53140.0,STARLINK-4170,PAYLOAD,2023-02-28 12:20:32,15.08871542,0.0001496,53.2153,95.4416,108.5202,251.5953,0.00091493,0.00014316,0.0,0 STARLINK-4170,1 53140U 22083J   23059.51426008  .00014316  00000-0  91493-3 0  9997,2 53140  53.2153  95.4416 0001496 108.5202 251.5953 15.08871542 35000,6917.784,95.436,540.684,538.614,0.0
53140.0,STARLINK-4170,PAYLOAD,2023-02-28 13:55:55,15.08880014,0.0001358,53.2154,95.1456,100.5475,259.567,0.0012618,0.00019873,0.0,0 STARLINK-4170,1 53140U 22083J   23059.58049805  .00019873  00000-0  12618-2 0  9994,2 53140  53.2154  95.1456 0001358 100.5475 259.5670 15.08880014 34381,6917.758,95.435,540.563,538.684,0.0
53140.0,STARLINK-4170,PAYLOAD,2023-03-01 02:39:01,15.08800918,0.0001486,53.2165,92.7665,113.9954,246.1194,0.00027065,4.018e-05,0.0,0 STARLINK-4170,1 53140U 22083J   23060.11043821  .00004018  00000-0  27065-3 0  9995,2 53140  53.2165  92.7665 0001486 113.9954 246.1194 15.08800918 35097,6918.0,95.44,540.893,538.837,0.0
53140.0,STARLINK-4170,PAYLOAD,2023-03-01 18:32:54,15.08803986,0.000187,53.2168,89.7927,111.0729,249.0463,0.0004833,7.405e-05,0.0,0 STARLINK-4170,1 53140U 22083J   23060.77285482  .00007405  00000-0  48330-3 0  9999,2 53140  53.2168  89.7927 0001870 111.0729 249.0463 15.08803986 34563,6917.99,95.44,541.149,538.562,0.0
53140.0,STARLINK-4170,PAYLOAD,2023-03-02 18:23:41,15.08880186,0.0001409,53.2164,85.3339,102.5722,257.5427,0.0022491,0.00035728,0.0,0 STARLINK-4170,1 53140U 22083J   23061.76644900  .00035728  00000-0  22491-2 0  9991,2 53140  53.2164  85.3339 0001409 102.5722 257.5427 15.08880186 35342,6917.758,95.435,540.597,538.648,0.0
53140.0,STARLINK-4170,PAYLOAD,2023-03-03 07:06:47,15.08799011,0.0002148,53.2153,82.9548,65.2689,294.8527,-0.0012136,-0.0001953,0.0,0 STARLINK-4170,1 53140U 22083J   23062.29638364 -.00019530  00000-0 -12136-2 0  9997,2 53140  53.2153  82.9548 0002148  65.2689 294.8527 15.08799011 35423,6918.006,95.44,541.357,538.385,0.0
53140.0,STARLINK-4170,PAYLOAD,2023-03-03 11:52:56,15.08844777,0.0001713,53.2154,82.0629,99.1435,260.9751,0.00010954,1.456e-05,0.0,0 STARLINK-4170,1 53140U 22083J   23062.49509334  .00001456  00000-0  10954-3 0  9996,2 53140  53.2154  82.0629 0001713  99.1435 260.9751 15.08844777 35453,6917.866,95.437,540.916,538.546,0.0
53140.0,STARLINK-4170,PAYLOAD,2023-03-03 18:14:28,15.08854466,0.0001628,53.2149,80.8741,98.7903,261.3274,0.00024266,3.578e-05,0.0,0 STARLINK-4170,1 53140U 22083J   23062.76004911  .00003578  00000-0  24266-3 0  9995,2 53140  53.2149  80.8741 0001628  98.7903 261.3274 15.08854466 34863,6917.836,95.437,540.827,538.575,0.0
53140.0,STARLINK-4170,PAYLOAD,2023-03-04 00:36:00,15.08862939,0.0001404,53.2153,79.6843,100.3523,259.7627,0.00044259,6.767e-05,0.0,0 STARLINK-4170,1 53140U 22083J   23063.02500452  .00006767  00000-0  44259-3 0  9993,2 53140  53.2153  79.6843 0001404 100.3523 259.7627 15.08862939 35539,6917.81,95.436,540.647,538.704,0.0
53140.0,STARLINK-4170,PAYLOAD,2023-03-04 08:32:55,15.08899268,0.000185,53.2155,78.1976,95.8963,264.224,0.0023621,0.00037567,0.0,0 STARLINK-4170,1 53140U 22083J   23063.35619871  .00037567  00000-0  23621-2 0  9996,2 53140  53.2155  78.1976 0001850  95.8963 264.2240 15.08899268 35585,6917.699,95.434,540.844,538.284,0.0
53140.0,STARLINK-4170,PAYLOAD,2023-03-04 18:05:14,15.08848277,0.0001703,53.2158,76.4132,85.4531,274.6656,-0.00029885,-5.042e-05,0.0,0 STARLINK-4170,1 53140U 22083J   23063.75363840 -.00005042  00000-0 -29885-3 0  9996,2 53140  53.2158  76.4132 0001703  85.4531 274.6656 15.08848277 35643,6917.855,95.437,540.898,538.542,0.0
53140.0,STARLINK-4170,PAYLOAD,2023-03-05 06:48:19,15.08839061,0.000161,53.2152,74.0348,82.857,277.2606,0.0016193,0.00025577,0.0,0 STARLINK-4170,1 53140U 22083J   23064.28356150  .00025577  00000-0  16193-2 0  9991,2 53140  53.2152  74.0348 0001610  82.8570 277.2606 15.08839061 35095,6917.883,95.438,540.862,538.634,0.0
